"ï..english_name","french_name","gis_name","UNSD_name","iso3_alpha2","iso3_alpha3","iso3_num","proGres_alpha3","noc_alpha3","noc_name","nato_alpha2","nato_alpha3","nato_name","marc_alpha3","marc_name","itu_num","itu_alpha3","itu_names","fips_alpha2","fips_name","undp_alpha3","undp_name","fao_name","fao_alpha3","lp_alpha3","lp_name","wb_name","prio_name","un_names","X"
"Afghanistan","Afghanistan (l')","Afghanistan","Afghanistan","AF","AFG",4,"AFG","AFG","Â Afghanistan","AF","AFG","Afghanistan","af","Afghanistan",401,"AFG","Afghanistan","AF","Afghanistan","AFG","Â Afghanistan","Afghanistan","AFG","AFG","Â Afghanistan","Afghanistan","Afghanistan","Afghanistan",""
"Albania","Albanie (l')","Albania","Albania","AL","ALB",8,"ALB","ALB","Â Albania","AL","ALB","Albania","aa","Albania",201,"ALB","Albania (Republic of)","AL","Albania","ALB","Â Albania","Albania","ALB","AL","Â Albania","Albania","Albania","Albania",""
"Algeria","AlgÃ©rie (l')","Algeria","Algeria","DZ","DZA",12,"ALG","ALG","Â Algeria","AG","DZA","Algeria","ae","Algeria",605,"ALG","Algeria (People's Democratic Republic of)","AG","Algeria","ALG","Â Algeria","Algeria","DZA","DZ","Â Algeria","Algeria","Algeria","Algeria",""
"American Samoa","Samoa amÃ©ricaines (les)","#N/A","#N/A","AS","ASM",16,"#N/A","ASA","Â American Samoa","","","","as","American Samoa",559,"#N/A","United States of America - American Samoa","AQ","American Samoa","AMS","Â American Samoa","Amer Samoa","ASM","","","American Samoa","","",""
"Andorra","Andorre (l')","","Andorra","AD","AND",20,"AND","AND","Â Andorra","AN","AND","Andorra","an","Andorra",202,"AND","Andorra (Principality of)","AN","Andorra","AND","Â Andorra","Andorra","AND","AND","Â Andorra","Andorra","","Andorra",""
"Angola","Angola (l')","Angola","Angola","AO","AGO",24,"ANG","ANG","Â Angola","AO","AGO","Angola","ao","Angola",603,"AGL","Angola (Republic of)","AO","Angola","ANG","Â Angola","Angola","AGO","","","Angola","Angola","Angola",""
"Anguilla","Anguilla","Anguilla","Anguilla","AI","AIA",660,"AIA","","","AV","AIA","Anguilla","am","Anguilla",301,"#N/A","United Kingdom of Great Britain and Northern Ireland - Anguilla","AV","Anguilla","ANL","Â Anguilla","Anguilla","AIA","","","Anguila","","",""
"Antarctica","Antarctique (l')","Antarctica","Antarctica","AQ","ATA",10,"ATA","","","AY","ATA","Antarctica","ay","Antarctica",NA,"#N/A","","AY","Antarctica","","","","","","","#N/A","","",""
"Antigua and Barbuda","Antigua-et-Barbuda","Antigua and Barbuda","Antigua and Barbuda","AG","ATG",28,"ANT","ANT","Â Antigua and Barbuda","AC","ATG","Antigua and Barbuda","aq","Antigua and Barbuda",304,"ATG","Antigua and Barbuda","AC","Antigua and Barbuda","ANT","Â Antigua and Barbuda","Antigua Barb","ATG","","","Antigua and Barbuda","","Antigua and Barbuda",""
"Argentina","Argentine (l')","Argentina","Argentina","AR","ARG",32,"ARG","ARG","Â Argentina","AR","ARG","Argentina","ag","Argentina",701,"ARG","Argentine Republic","AR","Argentina","ARG","Â Argentina","Argentina","ARG","RA","Â Argentina","Argentina","Argentina","Argentina",""
"Armenia","ArmÃ©nie (l')","Armenia","Armenia","AM","ARM",51,"ARM","ARM","Â Armenia","AM","ARM","Armenia","ai","Armenia (Republic)",216,"ARM","Armenia (Republic of)","AM","Armenia","ARM","Â Armenia","Armenia","ARM","AM","Â Armenia","Armenia","Armenia","Armenia",""
"Aruba","Aruba","Aruba (K. of the Netherland)","Aruba","AW","ABW",533,"ABW","ARU","Â Aruba","AA","ABW","Aruba","aw","Aruba",307,"#N/A","Netherlands (Kingdom of the) - Aruba","AA","Aruba","ARU","Â Aruba","Aruba","ABW","","","Aruba","","",""
"Australia","Australie (l')","Australia","Australia","AU","AUS",36,"AUL","AUS","Â Australia","AS","AUS","Australia","at","Australia",503,"AUS","Australia","AS","Australia","AUL","Â Australia","Australia","AUS","AUS","Â Australia","Australia","Australia","Australia",""
"Austria","Autriche (l')","Austria","Austria","AT","AUT",40,"AUS","AUT","Â Austria","AU","AUT","Austria","au","Austria",203,"AUT","Austria","AU","Austria","AUS","Â Austria","Austria","AUT","A","Â Austria","Austria","Austria","Austria",""
"Azerbaijan","AzerbaÃ¯djan (l')","Azerbaijan","Azerbaijan","AZ","AZE",31,"AZE","AZE","Â Azerbaijan","AJ","AZE","Azerbaijan","aj","Azerbaijan",423,"AZE","Azerbaijan (Republic of)","AJ","Azerbaijan","AZE","Â Azerbaijan","Azerbaijan","AZE","AZ","Â Azerbaijan","Azerbaijan","Azerbaijan","Azerbaijan",""
"Bahamas (the)","Bahamas (les)","Bahamas","Bahamas","BS","BHS",44,"BHS","BAH","Â Bahamas","BF","BHS","TheÂ Bahamas","bf","Bahamas",308,"BAH","Bahamas (Commonwealth of the)","BF","Bahamas","BHA","Â The Bahamas","Bahamas","BHS","BS","Â Bahamas","Bahamas, The","","The Bahamas",""
"Bahrain","BahreÃ¯n","Bahrain","Bahrain","BH","BHR",48,"BAH","BRN","Â Bahrain","BA","BHR","Bahrain","ba","Bahrain",408,"BHR","Bahrain (Kingdom of)","BA","Bahrain","BAH","Â Bahrain","Bahrain","BHR","BRN","Â Bahrain","Bahrain","Bahrain","Bahrain",""
"Bangladesh","Bangladesh (le)","Bangladesh","Bangladesh","BD","BGD",50,"BGD","BAN","Â Bangladesh","BD","BGD","Bangladesh","bg","Bangladesh",405,"BGD","Bangladesh (People's Republic of)","BG","Bangladesh","BGD","Â Bangladesh","Bangladesh","BGD","BD","Â Bangladesh","Bangladesh","Bangladesh","Bangladesh",""
"Barbados","Barbade (la)","Barbados","Barbados","BB","BRB",52,"BAR","BAR","Â Barbados","BB","BRB","Barbados","bb","Barbados",314,"BRB","Barbados","BB","Barbados","BAR","Â Barbados","Barbados","BRB","BDS","Â Barbados","Barbados","","Barbados",""
"Belarus","BÃ©larus (le)","Belarus","Belarus","BY","BLR",112,"BLR","BLR","Â Belarus","BO","BLR","Belarus","bw","Belarus",206,"BLR","Belarus (Republic of)","BO","Belarus","BYE","Â Belarus","Belarus","BLR","BY","Â Belarus","Belarus","","Belarus",""
"Belgium","Belgique (la)","Belgium","Belgium","BE","BEL",56,"BEL","BEL","Â Belgium","BE","BEL","Belgium","be","Belgium",205,"BEL","Belgium","BE","Belgium","BEL","Â Belgium","Belgium","BEL","B","Â Belgium","Belgium","Belgium","Belgium",""
"Belize","Belize (le)","Belize","Belize","BZ","BLZ",84,"BZE","BIZ","Â Belize","BH","BLZ","Belize","bh","Belize",312,"BLZ","Belize","BH","Belize","BZE","Â Belize","Belize","BLZ","BH","Â Belize","Belize","","Belize",""
"Benin","BÃ©nin (le)","Benin","Benin","BJ","BEN",204,"BEN","BEN","Â Benin","BN","BEN","Benin","dm","Benin",610,"BEN","Benin (Republic of)","BN","Benin","BEN","Â Benin","Benin","BEN","DY","Â Benin","Benin","Benin","Benin",""
"Bermuda","Bermudes (les)","Bermuda (GBR)","Bermuda","BM","BMU",60,"BER","BER","Â Bermuda","BM","BMU","Bermuda","bm","Bermuda Islands",310,"#N/A","United Kingdom of Great Britain and Northern Ireland - Bermuda","BD","Bermuda","BER","Â Bermuda","Bermuda","BMU","","","Bermuda","","",""
"Bhutan","Bhoutan (le)","Bhutan","Bhutan","BT","BTN",64,"BHU","BHU","Â Bhutan","BT","BTN","Bhutan","bt","Bhutan",410,"BTN","Bhutan (Kingdom of)","BT","Bhutan","BHU","Â Bhutan","Bhutan","BTN","","","Bhutan","Bhutan","Bhutan",""
"Bolivia (Plurinational State of)","Bolivie (Ã‰tat plurinational de)","Plurinational State of Bolivia","Bolivia (Plurinational State of)","BO","BOL",68,"BOL","BOL","Â Bolivia","BL","BOL","Bolivia","bo","Bolivia",720,"BOL","Bolivia (Plurinational State of)","BL","Bolivia, Plurinational State Of","BOL","Â Bolivia","Bolivia","BOL","BOL","Â Bolivia","Bolivia","Bolivia","Bolivia Plurinational State of ",""
"Bonaire, Sint Eustatius and Saba","Bonaire, Saint-Eustache et Saba","Bonaire Saint Eustatius and Saba (NLD)","Bonaire, Sint Eustatius and Saba","BQ","BES",535,"BES","","","","","","","",NA,"#N/A","","â€“","Bonaire, Sint Eustatius and Saba","","","Bonaire/Eust","BES","","","#N/A","","",""
"Bosnia and Herzegovina","Bosnie-HerzÃ©govine (la)","Bosnia and Herzegovina","Bosnia and Herzegovina","BA","BIH",70,"BSN","BIH","Â Bosnia and Herzegovina","BK","BIH","Bosnia-Herzegovina","bn","Bosnia and Herzegovina",478,"BIH","Bosnia and Herzegovina","BK","Bosnia and Herzegovina","BIH","Â Bosnia-Herzegovina","Bosnia Herzg","BIH","BIH","Â Bosnia and Herzegovina","Bosnia and Herzegovina","Bosnia-Herzegovina","Bosnia and Herzegovina",""
"Botswana","Botswana (le)","Botswana","Botswana","BW","BWA",72,"BOT","BOT","Â Botswana","BC","BWA","Botswana","bs","Botswana",611,"BOT","Botswana (Republic of)","BC","Botswana","BOT","Â Botswana","Botswana","BWA","BW","Â Botswana","Botswana","Botswana","Botswana",""
"Bouvet Island","Bouvet (l'ÃŽle)","#N/A","#N/A","BV","BVT",74,"#N/A","","","BV","BVT","Bouvet Island","bv","Bouvet Island",NA,"#N/A","","BV","Bouvet Island","","","","","","","#N/A","","",""
"Brazil","BrÃ©sil (le)","Brazil","Brazil","BR","BRA",76,"BRA","BRA","Â Brazil","BR","BRA","Brazil","bl","Brazil",710,"B","Brazil (Federative Republic of)","BR","Brazil","BRA","Â Brazil","Brazil","BRA","BR","Â Brazil","Brazil","Brazil","Brazil",""
"British Indian Ocean Territory (the)","Indien (leÂ Territoire britannique de l'ocÃ©an)","#N/A","#N/A","IO","IOT",86,"#N/A","","","IO","IOT","British Indian Ocean Territory","bi","British Indian Ocean Territory",NA,"#N/A","","IO","British Indian Ocean Territory","","","Br Ind","IOT","","","British Indian Ocean Ter.","","",""
"Brunei Darussalam","BrunÃ©i Darussalam (le)","Brunei Darussalam","Brunei Darussalam","BN","BRN",96,"BRU","BRU","Â Brunei","BX","BRN","Brunei","bx","Brunei",508,"BRU","Brunei Darussalam","BX","Brunei Darussalam","BRU","Â Brunei","Brunei Darsm","BRN","BRU","Â Brunei","Brunei","","Brunei Darussalam",""
"Bulgaria","Bulgarie (la)","Bulgaria","Bulgaria","BG","BGR",100,"BUL","BUL","Â Bulgaria","BG","BGR","Bulgaria","bu","Bulgaria",207,"BUL","Bulgaria (Republic of)","BU","Bulgaria","BUL","Â Bulgaria","Bulgaria","BGR","BG","Â Bulgaria","Bulgaria","","Bulgaria",""
"Burkina Faso","Burkina Faso (le)","Burkina Faso","Burkina Faso","BF","BFA",854,"BKF","BUR","Â Burkina Faso","UV","BFA","Burkina Faso","uv","Burkina Faso",633,"BFA","Burkina Faso","UV","Burkina Faso","BKF","Â Burkina Faso","Burkina Faso","BFA","BF","Â Burkina Faso","Burkina Faso","Burkina Faso","Burkina Faso",""
"Burundi","Burundi (le)","Burundi","Burundi","BI","BDI",108,"BDI","BDI","Â Burundi","BY","BDI","Burundi","bd","Burundi",609,"BDI","Burundi (Republic of)","BY","Burundi","BDI","Â Burundi","Burundi","BDI","RU","Â Burundi","Burundi","Burundi","Burundi",""
"Cabo Verde","Cabo Verde","Cape Verde","Cabo Verde","CV","CPV",132,"CVI","CPV","Â Cape Verde","CV","CPV","Cape Verde","cv","Cabo Verde",617,"CPV","Cabo Verde (Republic of)","CV","Cabo Verde","CVI","Â Cape Verde","Cabo Verde","CPV","","","Cape Verde","","Cape Verde",""
"Cambodia","Cambodge (le)","Cambodia","Cambodia","KH","KHM",116,"CAM","CAM","Â Cambodia","CB","KHM","Cambodia","cb","Cambodia",514,"CBG","Cambodia (Kingdom of)","CB","Cambodia","CMB","Â Cambodia","Cambodia","KHM","K","Â Cambodia","Cambodia","Cambodia (Kampuchea)","Cambodia",""
"Cameroon","Cameroun (le)","Cameroon","Cameroon","CM","CMR",120,"CMR","CMR","Â Cameroon","CM","CMR","Cameroon","cm","Cameroon",613,"CME","Cameroon (Republic of)","CM","Cameroon","CMR","Â Cameroon","Cameroon","CMR","CAM","Â Cameroon","Cameroon","Cameroon","Cameroon",""
"Canada","Canada (le)","Canada","Canada","CA","CAN",124,"CAN","CAN","Â Canada","CA","CAN","Canada","#NAME?","Canada",316,"CAN","Canada","CA","Canada","CAN","Â Canada","Canada","CAN","CDN","Â Canada","Canada","Canada","Canada",""
"Cayman Islands (the)","CaÃ¯mans (lesÂ ÃŽles)","Cayman Islands","Cayman Islands","KY","CYM",136,"CAY","CAY","Â Cayman Islands","CJ","CYM","Cayman Islands","cj","Cayman Islands",319,"#N/A","United Kingdom of Great Britain and Northern Ireland - Cayman Islands","CJ","Cayman Islands","CAY","Â Cayman Islands","Cayman Is","CYM","","","Cayman Islands","","",""
"Central African Republic (the)","RÃ©publique centrafricaine (la)","Central African Republic","Central African Republic","CF","CAF",140,"CAR","CAF","Â Central African Republic","CT","CAF","Central African Republic","cx","Central African Republic",612,"CAF","Central African Republic","CT","Central African Republic","CAF","Â Central African Republic","Cent Afr Rep","CAF","RCA","Â Central African Republic","Central African Republic","Central African Republic","Central African Republic",""
"Chad","Tchad (le)","Rep. of Chad","Chad","TD","TCD",148,"CHD","CHA","Â Chad","CD","TCD","Chad","cd","Chad",670,"TCD","Chad (Republic of)","CD","Chad","CHD","Â Chad","Chad","TCD","TCH, TD","Â Chad","Chad","Chad","Chad",""
"Chile","Chili (le)","Chile","Chile","CL","CHL",152,"CHL","CHI","Â Chile","CI","CHL","Chile","cl","Chile",725,"CHL","Chile","CI","Chile","CHI","Â Chile","Chile","CHL","RCH","Â Chile","Chile","","Chile",""
"China","Chine (la)","China","China","CN","CHN",156,"CHI","CHN","Â China","CH","CHN","People's Republic of China","cc","China",412,"CHN","China (People's Republic of)","CH","China","CPR","Â People's Republic of China","China","CHN","","","China","China","China",""
"Christmas Island","Christmas (l'ÃŽle)","#N/A","#N/A","CX","CXR",162,"#N/A","","","KT","CXR","Christmas Island","xa","Christmas Island (Indian Ocean)",516,"#N/A","Australia - Christmas Island (Indian Ocean)","KT","Christmas Island","","","","","","","Christmas Island","","",""
"Cocos (Keeling) Islands (the)","Cocos (lesÂ ÃŽles)/ Keeling (lesÂ ÃŽles)","#N/A","#N/A","CC","CCK",166,"#N/A","","","CK","CCK","Cocos (Keeling) Islands","xb","Cocos (Keeling) Islands",523,"#N/A","Australia - Cocos (Keeling) Islands","CK","Cocos (Keeling) Islands","","","","","","","Cocos (Keeling) Islands","","",""
"Colombia","Colombie (la)","Colombia","Colombia","CO","COL",170,"COL","COL","Â Colombia","CO","COL","Colombia","ck","Colombia",730,"CLM","Colombia (Republic of)","CO","Colombia","COL","Â Colombia","Colombia","COL","CO","Â Colombia","Colombia","Colombia","Colombia",""
"Comoros (the)","Comores (les)","Comoros","Comoros","KM","COM",174,"COI","COM","Â Comoros","CN","COM","Comoros","cq","Comoros",616,"COM","Comoros (Union of the)","CN","Comoros","COI","Â Comoros","Comoros","COM","","","Comoros","Comoros","Comoros",""
"Congo (the Democratic Republic of the)","Congo (la RÃ©publique dÃ©mocratique du)","Democratic Republic of the Congo","Democratic Republic of the Congo","CD","COD",180,"COD","COD","Â Democratic Republic of the Congo","CD","COD","Democratic Republic of the Congo","cg","Congo (Democratic Republic)",676,"COD","Democratic Republic of the Congo","CG","Congo, the Democratic Republic of the","ZAI","Â Democratic Republic of the Congo","Congo Dem R","COD","CGO","Â Democratic Republic of the Congo","Congo, Dem. Rep.","DR Congo (Zaire)","Democratic Republic of the Congo",""
"Congo (the)","Congo (le)","Republic of the Congo","Congo","CG","COG",178,"COB","CGO","Â Republic of the Congo","CF","COG","Republic of the Congo","cf","Congo (Brazzaville)",615,"COG","Congo (Republic of the)","CF","Congo","PRC","Â Republic of the Congo","Congo","COG","RCB","Â Republic of the Congo","Congo, Rep.","Congo","Republic of the Congo",""
"Cook Islands (the)","Cook (les ÃŽles)","Cook Islands","Cook Islands","CK","COK",184,"COK","COK","Â Cook Islands","CW","COK","Cook Islands","cw","Cook Islands",518,"#N/A","New Zealand - Cook Islands","CW","Cook Islands","CKI","Â Cook Islands","Cook Is","COK","","","Cook Islands","","",""
"Costa Rica","Costa Rica (le)","Costa Rica","Costa Rica","CR","CRI",188,"COS","CRC","Â Costa Rica","CS","CRI","Costa Rica","cr","Costa Rica",321,"CTR","Costa Rica","CS","Costa Rica","COS","Â Costa Rica","Costa Rica","CRI","CR","Costa Rica","Costa Rica","","Costa Rica",""
"Croatia","Croatie (la)","Croatia","Croatia","HR","HRV",191,"HRV","CRO","Â Croatia","HR","HRV","Croatia","ci","Croatia",238,"HRV","Croatia (Republic of)","HR","Croatia","CRO","Â Croatia","Croatia","HRV","HR","Croatia","Croatia","Croatia","Croatia",""
"Cuba","Cuba","Cuba","Cuba","CU","CUB",192,"CUB","CUB","Â Cuba","CU","CUB","Cuba","cu","Cuba",323,"CUB","Cuba","CU","Cuba","CUB","Â Cuba","Cuba","CUB","C","Cuba","Cuba","","Cuba",""
"CuraÃ§ao","CuraÃ§ao","CuraÃ§ao (K. of the Netherland)","CuraÃ§ao","CW","CUW",531,"CUW","","","","","","co","CuraÃ§ao",306,"#N/A","Netherlands (Kingdom of the) - CuraÃ§ao","UC","Curacao","","","CuraÃ§ao","CUW","","","#N/A","","",""
"Cyprus","Chypre","Cyprus","Cyprus","CY","CYP",196,"CYP","CYP","Â Cyprus","CY","CYP","Cyprus","cy","Cyprus",209,"CYP","Cyprus (Republic of)","CY","Cyprus","CYP","Â Cyprus","Cyprus","CYP","CY","Â Cyprus","Cyprus","","Cyprus",""
"Czechia","TchÃ©quie (la)","Czech Republic","Czechia","CZ","CZE",203,"CZE","CZE","Â Czech Republic","CZ","CZE","Czech Republic","xr","Czech Republic",270,"CZE","Czech Republic","EZ","Czechia","CZE","Â Czech Republic","Czechia","CZE","CZ","Â Czech Republic","Czech Republic","","Czech Republic",""
"CÃ´te d'Ivoire","CÃ´te d'Ivoire (la)","CÃ´te d'Ivoire","CÃ´te d'Ivoire","CI","CIV",384,"ICO","CIV","Â Ivory Coast","IV","CIV","CÃ´te d'Ivoire","iv","CÃ´te d'Ivoire",619,"CTI","CÃ´te d'Ivoire (Republic of)","IV","Cote dâ€™Ivoire","IVC","Â CÃ´te d'Ivoire","CÃ´te dIvoire","CIV","CI","Â Ivory CoastÂ (CÃ´te d'Ivoire)","Cote d'Ivoire","Ivory Coast","Ivory Coast",""
"Denmark","Danemark (le)","Denmark","Denmark","DK","DNK",208,"DEN","DEN","Â Denmark","DA","DNK","Denmark","dk","Denmark",219,"DNK","Denmark","DK","Denmark","DEN","Â Denmark","Denmark","DNK","DK","Â Denmark","Denmark","","Denmark",""
"Djibouti","Djibouti","Djibouti","Djibouti","DJ","DJI",262,"DJB","DJI","Â Djibouti","DJ","DJI","Djibouti","ft","Djibouti",621,"DJI","Djibouti (Republic of)","DJ","Djibouti","DJI","Â Djibouti","Djibouti","DJI","","","Djibouti","Djibouti","Djibouti",""
"Dominica","Dominique (la)","Dominica","Dominica","DM","DMA",212,"DMA","DMA","Â Dominica","DO","DMA","Dominica","dq","Dominica",325,"DMA","Dominica (Commonwealth of)","DO","Dominica","DMI","Â Dominica","Dominica","DMA","WD","Â Dominica","Dominica","","Dominica",""
"Dominican Republic (the)","dominicaine (laÂ RÃ©publique)","Dominican Republic","Dominican Republic","DO","DOM",214,"DOM","DOM","Â Dominican Republic","DR","DOM","Dominican Republic","dr","Dominican Republic",327,"DOM","Dominican Republic","DR","Dominican Republic","DOM","Â Dominican Republic","Dominican Rp","DOM","DOM","Â Dominican Republic","Dominican Republic","","Dominican Republic",""
"Ecuador","Ã‰quateur (l')","Ecuador","Ecuador","EC","ECU",218,"ECU","ECU","Â Ecuador","EC","ECU","Ecuador","ec","Ecuador",735,"EQA","Ecuador","EC","Ecuador","ECU","Â Ecuador","Ecuador","ECU","EC","Â Ecuador","Ecuador","Ecuador","Ecuador",""
"Egypt","Ã‰gypte (l')","Egypt","Egypt","EG","EGY",818,"ARE","EGY","Â Egypt","EG","EGY","Egypt","ua","Egypt",622,"EGY","Egypt (Arab Republic of)","EG","Egypt","EGY","Â Egypt","Egypt","EGY","ET","Â Egypt","Egypt, Arab Rep.","Egypt","Egypt",""
"El Salvador","El Salvador","El Salvador","El Salvador","SV","SLV",222,"SAL","ESA","Â El Salvador","SV","SLV","El Salvador","es","El Salvador",359,"SLV","El Salvador (Republic of)","ES","El Salvador","ELS","Â El Salvador","Â El Salvador","SLV","ES","Â El Salvador","El Salvador","El Salvador","El Salvador",""
"Equatorial Guinea","GuinÃ©e Ã©quatoriale (la)","Equatorial Guinea","Equatorial Guinea","GQ","GNQ",226,"EGU","GEQ","Â Equatorial Guinea","EK","GNQ","Equatorial Guinea","eg","Equatorial Guinea",631,"GNE","Equatorial Guinea (Republic of)","EK","Equatorial Guinea","EQG","Â Equatorial Guinea","Eq Guinea","GNQ","","","Equatorial Guinea","","Equatorial Guinea",""
"Eritrea","Ã‰rythrÃ©e (l')","Eritrea","Eritrea","ER","ERI",232,"ERT","ERI","Â Eritrea","ER","ERI","Eritrea","ea","Eritrea",625,"ERI","Eritrea","ER","Eritrea","ERI","Â Eritrea","Eritrea","ERI","ER","Â Eritrea","Eritrea","Eritrea","Eritrea",""
"Estonia","Estonie (l')","Estonia","Estonia","EE","EST",233,"EST","EST","Â Estonia","EN","EST","Estonia","er","Estonia",276,"EST","Estonia (Republic of)","EN","Estonia","EST","Â Estonia","Estonia","EST","EST","Â Estonia","Estonia","","Estonia",""
"Eswatini","Eswatini (l')","Eswatini","Eswatini","SZ","SWZ",748,"SWA","SWZ","EswatiniÂ Eswatini","","","","sq","Eswatini",669,"SWZ","Eswatini (Kingdom of)","WZ","Swaziland","SWA","Â Swaziland","Swaziland","SWZ","SD","Â Eswatini","Swaziland","Kingdom of eSwatini (Swaziland)","Eswatini",""
"Ethiopia","Ã‰thiopie (l')","Ethiopia","Ethiopia","ET","ETH",231,"ETH","ETH","Â Ethiopia","ET","ETH","Ethiopia","et","Ethiopia",624,"ETH","Ethiopia (Federal Democratic Republic of)","ET","Ethiopia","ETH","Â Ethiopia","Ethiopia","ETH","ETH","Â Ethiopia","Ethiopia (excludes Eritrea)","Ethiopia","Ethiopia",""
"Falkland Islands (the) [Malvinas]","Falkland (les ÃŽles)/Malouines (les ÃŽles)","Falkland Islands (Malvinas)","Falkland Islands (Malvinas)","FK","FLK",238,"FLK","","","FK","FLK","Falkland Islands","fk","Falkland Islands",740,"#N/A","United Kingdom of Great Britain and Northern Ireland - Falkland Islands (Malvinas)","FK","Falkland Islands (Malvinas)","","","Falkland Is","FLK","","","Falkland Island","","",""
"Faroe Islands (the)","FÃ©roÃ© (les ÃŽles)","Faeroe Islands (DNK)","Faroe Islands","FO","FRO",234,"FRO","","","FO","FRO","Faroe Islands","fa","Faroe Islands",231,"#N/A","Denmark - Faroe Islands","FO","Faroe Islands","","","Faroe Is","FRO","FO","Â Faroe Islands","Faeroe Islands","","",""
"Fiji","Fidji (les)","Fiji","Fiji","FJ","FJI",242,"FIJ","FIJ","Â Fiji","FJ","FJI","Fiji","fj","Fiji",520,"FJI","Fiji (Republic of)","FJ","Fiji","FIJ","Â Fiji","Fiji","FJI","FJI","Â Fiji","Fiji","","Fiji",""
"Finland","Finlande (la)","Finland","Finland","FI","FIN",246,"FIN","FIN","Â Finland","FI","FIN","Finland","fi","Finland",230,"FIN","Finland","FI","Finland","FIN","Â Finland","Finland","FIN","FIN","Â Finland","Finland","","Finland",""
"France","France (la)","France","France","FR","FRA",250,"FRA","FRA","Â France","FR","FRA","France","fr","France",226,"F","France","FR","France","FRA","Â France","France","FRA","F","Â France","France","France","France",""
"French Guiana","Guyane franÃ§aise (laÂ )","French Guiana (FRA)","French Guiana","GF","GUF",254,"FGU","","","FG","GUF","French Guiana","fg","French Guiana",NA,"#N/A","","FG","French Guiana","FGU","Â French Guiana","French Guiana","GUF","","","French Guiana","","",""
"French Polynesia","PolynÃ©sie franÃ§aise (la)","French Polynesia (FRA)","French Polynesia","PF","PYF",258,"FPO","","","FP","PYF","French Polynesia","fp","French Polynesia",546,"#N/A","France - French Polynesia","FP","French Polynesia","FPL","Â French Polynesia","French Polynesia","PYF","","","French Polynesia","","",""
"French Southern Territories (the)","Terres australes franÃ§aises (les)","French Southern and Antarctic Territories (FRA)","French Southern Territories","TF","ATF",260,"ATF","","","FS","ATF","French Southern Territories","fs","Terres australes et antarctiques franÃ§aises",NA,"#N/A","","FS","French Southern Territories","FOS","French Overseas Territories","Fr South Tr","ATF","","","Fr. So. Ant. Tr","","",""
"Gabon","Gabon (le)","Gabon","Gabon","GA","GAB",266,"GAB","GAB","Â Gabon","GA","GAB","Gabon","go","Gabon",626,"GAB","Gabonese Republic","GB","Gabon","GAB","Â Gabon","Gabon","GAB","G","Â Gabon","Gabon","","Gabon",""
"Gambia (the)","Gambie (la)","Gambia","Gambia","GM","GMB",270,"GAM","GAM","Â The Gambia","GM","GMB","The Gambia","gm","Gambia",629,"GMB","Gambia (Republic of the)","GA","Gambia","GAM","Â The Gambia","Gambia","GMB","WAG","Â Gambia","Gambia, The","Gambia","The Gambia",""
"Georgia","GÃ©orgie (la)","Georgia","Georgia","GE","GEO",268,"GEO","GEO","Â Georgia","GG","GEO","Georgia","gs","Georgia (Republic)",213,"GEO","Georgia","GG","Georgia","GEO","Â Georgia","Georgia","GEO","GE","Â Georgia","Georgia","Georgia","Georgia",""
"Germany","Allemagne (l')","Germany","Germany","DE","DEU",276,"GFR","GER","Â Germany","GE","DEU","Germany","gw","Germany",211,"D","Germany (Federal Republic of)","GM","Germany","GER","Â Germany","Germany","DEU","D","Â Germany","Germany","Germany","Germany",""
"Ghana","Ghana (le)","Ghana","Ghana","GH","GHA",288,"GHA","GHA","Â Ghana","GH","GHA","Ghana","gh","Ghana",627,"GHA","Ghana","GH","Ghana","GHA","Â Ghana","Ghana","GHA","GH","Â Ghana","Ghana","Ghana","Ghana",""
"Gibraltar","Gibraltar","#N/A","#N/A","GI","GIB",292,"#N/A","","","GI","GIB","Gibraltar","gi","Gibraltar",236,"#N/A","United Kingdom of Great Britain and Northern Ireland - Gibraltar","GI","Gibraltar","","","Gibraltar","GIB","GBZ","Â Gibraltar","Gibraltar","","",""
"Greece","GrÃ¨ce (la)","Greece","Greece","GR","GRC",300,"GRE","GRE","Â Greece","GR","GRC","Greece","gr","Greece",237,"GRC","Greece","GR","Greece","GRE","Â Greece","Greece","GRC","GR","Â Greece","Greece","","Greece",""
"Greenland","Groenland (le)","Greenland (DNK)","Greenland","GL","GRL",304,"GRL","","","GL","GRL","Greenland","gl","Greenland",331,"#N/A","Denmark - Greenland","GL","Greenland","","","Greenland","GRL","","","Greenland","","",""
"Grenada","Grenade (la)","Grenada","Grenada","GD","GRD",308,"GRN","GRN","Â Grenada","GJ","GRD","Grenada","gd","Grenada",330,"GRD","Grenada","GJ","Grenada","GRN","Â Grenada","Grenada","GRD","WG","Â Grenada","Grenada","","Grenada",""
"Guadeloupe","Guadeloupe (la)","Guadeloupe (FRA)","Guadeloupe","GP","GLP",312,"GLP","","","GP","GLP","Guadeloupe","gp","Guadeloupe",329,"#N/A","France - Guadeloupe (French Department of)","GP","Guadeloupe","GUD","Â Guadeloupe","Guadeloupe","GLP","","","Guadeloupe","","",""
"Guam","Guam","#N/A","#N/A","GU","GUM",316,"#N/A","GUM","Â Guam","GQ","GUM","Guam","gu","Guam",NA,"#N/A","","GQ","Guam","","","Guam","GUM","","","Guam","","",""
"Guatemala","Guatemala (le)","Guatemala","Guatemala","GT","GTM",320,"GUA","GUA","Â Guatemala","GT","GTM","Guatemala","gt","Guatemala",332,"GTM","Guatemala (Republic of)","GT","Guatemala","GUA","Â Guatemala","Guatemala","GTM","GCA","Â Guatemala","Guatemala","Guatemala","Guatemala",""
"Guernsey","Guernesey","#N/A","#N/A","GG","GGY",831,"#N/A","","","","","","gg","Guernsey",NA,"#N/A","","GK","Guernsey","","","","","","","#N/A","","",""
"Guinea","GuinÃ©e (la)","Guinea","Guinea","GN","GIN",324,"GUI","GUI","Â Guinea","GV","GIN","Guinea","gv","Guinea",632,"GUI","Guinea (Republic of)","GV","Guinea","GUI","Â Guinea","Guinea","GIN","RG","Â Guinea","Guinea","Guinea","Guinea",""
"Guinea-Bissau","GuinÃ©e-Bissau (la)","Guinea-Bissau","Guinea-Bissau","GW","GNB",624,"GNB","GBS","Â Guinea-Bissau","PU","GNB","Guinea-Bissau","pg","Guinea-Bissau",630,"GNB","Guinea-Bissau (Republic of)","PU","Guinea-Bissau","GBS","Â Guinea-Bissau","GuineaBissau","GNB","","","Guinea-Bissau","Guinea-Bissau","Guinea-Bissau",""
"Guyana","Guyana (le)","Guyana","Guyana","GY","GUY",328,"GUY","GUY","Â Guyana","GY","GUY","Guyana","gy","Guyana",750,"GUY","Guyana","GY","Guyana","GUY","Â Guyana","Guyana","GUY","GUY","Â Guyana","Guyana","Guyana","Guyana",""
"Haiti","HaÃ¯ti","Haiti","Haiti","HT","HTI",332,"HAI","HAI","Â Haiti","HA","HTI","Haiti","ht","Haiti",336,"HTI","Haiti (Republic of)","HA","Haiti","HAI","Â Haiti","Haiti","HTI","RH","Â Haiti","Haiti","Haiti","Haiti",""
"Heard Island and McDonald Islands","Heard-et-ÃŽles MacDonald (l'ÃŽle)","#N/A","#N/A","HM","HMD",334,"#N/A","","","HM","HMD","Heard and McDonald Islands","hm","Heard and McDonald Islands",NA,"#N/A","","HM","Heard Island and McDonald Islands","","","","","","","#N/A","","",""
"Holy See (the)","Saint-SiÃ¨ge (le)","Holy See","Holy See","VA","VAT",336,"VAT","","","","","","","",NA,"#N/A","","VT","Holy See","","","","","","","Holy See","","",""
"Honduras","Honduras (le)","Honduras","Honduras","HN","HND",340,"HON","HON","Â Honduras","HO","HND","Honduras","ho","Honduras",334,"HND","Honduras (Republic of)","HO","Honduras","HON","Â Honduras","Honduras","HND","HN","Â Honduras","Honduras","Honduras","Honduras",""
"Hong Kong","Hong Kong","Hong Kong (CHN)","China, Hong Kong Special Administrative Region","HK","HKG",344,"HKG","HKG","Â Hong Kong, China","HK","HKG","Hong Kong","#NAME?","Hong Kong",477,"#N/A","China (People's Republic of) - Hong Kong (Special Administrative Region of China)","HK","Hong Kong","HOK","Â Hong Kong","China,H.Kong","HKG","","","Hong Kong, China","","",""
"Hungary","Hongrie (la)","Hungary","Hungary","HU","HUN",348,"HUN","HUN","Â Hungary","HU","HUN","Hungary","hu","Hungary",243,"HNG","Hungary","HU","Hungary","HUN","Â Hungary","Hungary","HUN","H","Â Hungary","Hungary","","Hungary",""
"Iceland","Islande (l')","Iceland","Iceland","IS","ISL",352,"ICE","ISL","Â Iceland","IC","ISL","Iceland","ic","Iceland",251,"ISL","Iceland","IC","Iceland","ICE","Â Iceland","Iceland","ISL","IS","Â Iceland","Iceland","","Iceland",""
"India","Inde (l')","India","India","IN","IND",356,"IND","IND","Â India","IN","IND","India","ii","India",419,"IND","India (Republic of)","IN","India","IND","Â India","India","IND","IND","Â India","India","India","India",""
"Indonesia","IndonÃ©sie (l')","Indonesia","Indonesia","ID","IDN",360,"INS","INA","Â Indonesia","ID","IDN","Indonesia","io","Indonesia",525,"INS","Indonesia (Republic of)","ID","Indonesia","INS","Â Indonesia","Indonesia","IDN","RI","Â Indonesia","Indonesia","Indonesia","Indonesia",""
"Iran (Islamic Republic of)","Iran (RÃ©publique Islamique d')","Islamic Republic of Iran","Iran (Islamic Republic of)","IR","IRN",364,"IRN","IRI","Â Iran","IR","IRN","Iran","ir","Iran",422,"IRN","Iran (Islamic Republic of)","IR","Iran, Islamic Republic of","IRA","Â Iran","Iran","IRN","IR","Â Iran","Iran, Islamic Rep.","Iran","Iran",""
"Iraq","Iraq (l')","Iraq","Iraq","IQ","IRQ",368,"IRQ","IRQ","Â Iraq","IZ","IRQ","Iraq","iq","Iraq",425,"IRQ","Iraq (Republic of)","IZ","Iraq","IRQ","Â Iraq","Iraq","IRQ","IRQ","Â Iraq","Iraq","Iraq","Iraq",""
"Ireland","Irlande (l')","Ireland","Ireland","IE","IRL",372,"IRE","IRL","Â Ireland","EI","IRL","Ireland","ie","Ireland",250,"IRL","Ireland","EI","Ireland","IRE","Â Ireland","Ireland","IRL","IRL","Â Ireland","Ireland","","Republic of Ireland",""
"Isle of Man","ÃŽle de Man","#N/A","#N/A","IM","IMN",833,"#N/A","","","","","","im","Isle of Man",NA,"#N/A","","IM","Isle of Man","","","Isle of Man","IMN","GBM","Â Isle of Man","#N/A","","",""
"Israel","IsraÃ«l","Israel","Israel","IL","ISR",376,"ISR","ISR","Â Israel","IS","ISR","Israel","is","Israel",428,"ISR","Israel (State of)","IS","Israel","ISR","Â Israel","Israel","ISR","IL","Â Israel","Israel","Israel","Israel",""
"Italy","Italie (l')","Italy","Italy","IT","ITA",380,"ITA","ITA","Â Italy","IT","ITA","Italy","it","Italy",247,"I","Italy","IT","Italy","ITA","Â Italy","Italy","ITA","I","Â Italy","Italy","Italy","Italy",""
"Jamaica","JamaÃ¯que (la)","Jamaica","Jamaica","JM","JAM",388,"JAM","JAM","Â Jamaica","JM","JAM","Jamaica","jm","Jamaica",339,"JMC","Jamaica","JM","Jamaica","JAM","Â Jamaica","Jamaica","JAM","JA","Â Jamaica","Jamaica","Jamaica","Jamaica",""
"Japan","Japon (le)","Japan","Japan","JP","JPN",392,"JPN","JPN","Â Japan","JA","JPN","Japan","ja","Japan",431,"J","Japan","JA","Japan","JPN","Â Japan","Japan","JPN","J","Â Japan","Japan","","Japan",""
"Jersey","Jersey","#N/A","#N/A","JE","JEY",832,"#N/A","","","","","","je","Jersey",NA,"#N/A","","JE","Jersey","","","","","","","#N/A","","",""
"Jordan","Jordanie (la)","Jordan","Jordan","JO","JOR",400,"JOR","JOR","Â Jordan","JO","JOR","Jordan","jo","Jordan",438,"JOR","Jordan (Hashemite Kingdom of)","JO","Jordan","JOR","Â Jordan","Jordan","JOR","HKJ","Â Jordan","Jordan","Jordan","Jordan",""
"Kazakhstan","Kazakhstan (le)","Kazakhstan","Kazakhstan","KZ","KAZ",398,"KAZ","KAZ","Â Kazakhstan","KZ","KAZ","Kazakhstan","kz","Kazakhstan",436,"KAZ","Kazakhstan (Republic of)","KZ","Kazakhstan","KAZ","Â Kazakhstan","Kazakhstan","KAZ","KZ","Â Kazakhstan","Kazakhstan","","Kazakhstan",""
"Kenya","Kenya (le)","Kenya","Kenya","KE","KEN",404,"KEN","KEN","Â Kenya","KE","KEN","Kenya","ke","Kenya",634,"KEN","Kenya (Republic of)","KE","Kenya","KEN","Â Kenya","Kenya","KEN","EAK","Â Kenya","Kenya","Kenya","Kenya",""
"Kiribati","Kiribati","Kiribati","Kiribati","KI","KIR",296,"KIR","KIR","Â Kiribati","KR","KIR","Kiribati","gb","Kiribati",529,"KIR","Kiribati (Republic of)","KR","Kiribati","KIR","Â Kiribati","Kiribati","KIR","","","Kiribati","","Kiribati",""
"Korea (the Democratic People's Republic of)","CorÃ©e (laÂ RÃ©publique populaire dÃ©mocratique de)","Democratic People's Rep. of Korea","Democratic People's Republic of Korea","KP","PRK",408,"KRN","PRK","Â North Korea","KN","PRK","Democratic People's Republic of Korea","kn","Korea (North)",445,"KRE","Democratic People's Republic of Korea","KN","Korea, Democratic Peopleâ€™s Republic of","DRK","Â North Korea","Korea D P Rp","PRK","","","Korea, Dem. Rep.","","North Korea",""
"Korea (the Republic of)","CorÃ©e (la RÃ©publique de)","Republic of Korea","Republic of Korea","KR","KOR",410,"KOR","KOR","Â South Korea","KS","KOR","Republic of Korea","ko","Korea (South)",440,"KOR","Korea (Republic of)","KS","Korea, Republic of","ROK","Â South Korea","Korea Rep","KOR","ROK","Â South Korea","Korea, Rep.","","South Korea",""
"Kuwait","KoweÃ¯t (le)","Kuwait","Kuwait","KW","KWT",414,"KUW","KUW","Â Kuwait","KU","KWT","Kuwait","ku","Kuwait",447,"KWT","Kuwait (State of)","KU","Kuwait","KUW","Â Kuwait","Kuwait","KWT","KWT","Â Kuwait","Kuwait","Kuwait","Kuwait",""
"Kyrgyzstan","Kirghizistan (le)","Kyrgyzstan","Kyrgyzstan","KG","KGZ",417,"KGZ","KGZ","Â Kyrgyzstan","KG","KGZ","Kyrgyzstan","kg","Kyrgyzstan",451,"KGZ","Kyrgyz Republic","KG","Kyrgyzstan","KYR","Â Kyrgyzstan","Kyrgyzstan","KGZ","KS","Â Kyrgyzstan","Kyrgyz Republic","Kyrgyzstan","Kyrgyzstan",""
"Lao People's Democratic Republic (the)","Lao (la RÃ©publique dÃ©mocratique populaire)","Lao People's Democratic Republic","Lao People's Democratic Republic","LA","LAO",418,"LAO","LAO","Â Laos","LA","LAO","Laos","ls","Laos",531,"LAO","Lao People's Democratic Republic","LA","Lao Peopleâ€™s Democratic Republic","LAO","Â Laos","Lao P.Dem.R","LAO","LAO","Â Laos","Lao PDR","Laos","Laos",""
"Latvia","Lettonie (la)","Latvia","Latvia","LV","LVA",428,"LVA","LAT","Â Latvia","LG","LVA","Latvia","lv","Latvia",275,"LVA","Latvia (Republic of)","LG","Latvia","LAT","Â Latvia","Latvia","LVA","LV","Â Latvia","Latvia","","Latvia",""
"Lebanon","Liban (le)","Lebanon","Lebanon","LB","LBN",422,"LEB","LBN","Â Lebanon","LE","LBN","Lebanon","le","Lebanon",450,"LBN","Lebanon","LE","Lebanon","LEB","Â Lebanon","Lebanon","LBN","RL","Â Lebanon","Lebanon","Lebanon","Lebanon",""
"Lesotho","Lesotho (le)","Lesotho","Lesotho","LS","LSO",426,"LES","LES","Â Lesotho","LT","LSO","Lesotho","lo","Lesotho",644,"LSO","Lesotho (Kingdom of)","LT","Lesotho","LES","Â Lesotho","Lesotho","LSO","LS","Â Lesotho","Lesotho","Lesotho","Lesotho",""
"Liberia","LibÃ©ria (le)","Liberia","Liberia","LR","LBR",430,"LBR","LBR","Â Liberia","LI","LBR","Liberia","lb","Liberia",636,"LBR","Liberia (Republic of)","LI","Liberia","LIR","Â Liberia","Liberia","LBR","LB","Â Liberia","Liberia","Liberia","Liberia",""
"Libya","Libye (la)","Libya","Libya","LY","LBY",434,"LBY","LBA","Â Libya","LY","LBY","Libya","ly","Libya",642,"LBY","Libya (State of)","LY","Libya","LIB","Â Libya","Libya","LBY","LAR","Â Libya","Libya","Libya","Libya",""
"Liechtenstein","Liechtenstein (le)","Liechtenstein","Liechtenstein","LI","LIE",438,"LIE","LIE","Â Liechtenstein","LS","LIE","Liechtenstein","lh","Liechtenstein",252,"LIE","Liechtenstein (Principality of)","LS","Liechtenstein","LIE","Â Liechtenstein","Liechtensten","LIE","FL","Â Liechtenstein","Liechtenstein","","Liechtenstein",""
"Lithuania","Lituanie (la)","Lithuania","Lithuania","LT","LTU",440,"LTU","LTU","Â Lithuania","LH","LTU","Lithuania","li","Lithuania",277,"LTU","Lithuania (Republic of)","LH","Lithuania","LIT","Â Lithuania","Lithuania","LTU","LT","Â Lithuania","Lithuania","","Lithuania",""
"Luxembourg","Luxembourg (le)","Luxembourg","Luxembourg","LU","LUX",442,"LUX","LUX","Â Luxembourg","LU","LUX","Luxembourg","lu","Luxembourg",253,"LUX","Luxembourg","LU","Luxembourg","LUX","Â Luxembourg","Luxembourg","LUX","L","Â Luxembourg","Luxembourg","","Luxembourg",""
"Macao","Macao","Macao (CHN)","China, Macao Special Administrative Region","MO","MAC",446,"MAC","","","MC","MAC","Macau","#NAME?","Macao",453,"#N/A","China (People's Republic of) - Macao (Special Administrative Region of China)","MC","Macao","MAC","Â Macau","China, Macao","MAC","","","Macao","","",""
"Madagascar","Madagascar","Madagascar","Madagascar","MG","MDG",450,"MAD","MAD","Â Madagascar","MA","MDG","Madagascar","mg","Madagascar",647,"MDG","Madagascar (Republic of)","MA","Madagascar","MAG","Â Madagascar","Madagascar","MDG","RM","Â Madagascar","Madagascar","Madagascar (Malagasy)","Madagascar",""
"Malawi","Malawi (le)","Malawi","Malawi","MW","MWI",454,"MLW","MAW","Â Malawi","MI","MWI","Malawi","mw","Malawi",655,"MWI","Malawi","MI","Malawi","MLW","Â Malawi","Malawi","MWI","MW","Â Malawi","Malawi","","Malawi",""
"Malaysia","Malaisie (la)","Malaysia","Malaysia","MY","MYS",458,"MLS","MAS","Â Malaysia","MY","MYS","Malaysia","my","Malaysia",533,"MLA","Malaysia","MY","Malaysia","MAL","Â Malaysia","Malaysia","MYS","MAL","Â Malaysia","Malaysia","Malaysia","Malaysia",""
"Maldives","Maldives (les)","Maldives","Maldives","MV","MDV",462,"MDV","MDV","Â Maldives","MV","MDV","TheÂ Maldives","xc","Maldives",455,"MLD","Maldives (Republic of)","MV","Maldives","MDV","Â The Maldives","Maldives","MDV","","","Maldives","","Maldives",""
"Mali","Mali (le)","Mali","Mali","ML","MLI",466,"MLI","MLI","Â Mali","ML","MLI","Mali","ml","Mali",649,"MLI","Mali (Republic of)","ML","Mali","MLI","Â Mali","Mali","MLI","RMM","Â Mali","Mali","Mali","Mali",""
"Malta","Malte","Malta","Malta","MT","MLT",470,"MTA","MLT","Â Malta","MT","MLT","Malta","mm","Malta",215,"MLT","Malta","MT","Malta","MAT","Â Malta","Malta","MLT","M","Â Malta","Malta","Malta","Malta",""
"Marshall Islands (the)","Marshall (les ÃŽles)","Marshall Islands","Marshall Islands","MH","MHL",584,"MHL","MHL","Â Marshall Islands","RM","MHL","Marshall Islands","xe","Marshall Islands",538,"MHL","Marshall Islands (Republic of the)","RM","Marshall Islands","MAS","Â Marshall Islands","Marshall Is","MHL","","","Marshall Islands","","Marshall Islands",""
"Martinique","Martinique (la)","Martinique (FRA)","Martinique","MQ","MTQ",474,"MAR","","","MB","MTQ","Martinique","mq","Martinique",347,"#N/A","France - Martinique (French Department of)","MB","Martinique","MAQ","Â Martinique","Martinique","MTQ","","","Martinique","","",""
"Mauritania","Mauritanie (la)","Mauritania","Mauritania","MR","MRT",478,"MAU","MTN","Â Mauritania","MR","MRT","Mauritania","mu","Mauritania",654,"MTN","Mauritania (Islamic Republic of)","MR","Mauritania","MAU","Â Mauritania","Mauritania","MRT","RIM","Â Mauritania","Mauritania","Mauritania","Mauritania",""
"Mauritius","Maurice","Mauritius","Mauritius","MU","MUS",480,"MTS","MRI","Â Mauritius","MP","MUS","Mauritius","mf","Mauritius",645,"MAU","Mauritius (Republic of)","MP","Mauritius","MAR","Â Mauritius","Mauritius","MUS","MS","Â Mauritius","Mauritius","","Mauritius",""
"Mayotte","Mayotte","#N/A","#N/A","YT","MYT",175,"#N/A","","","YT","-","Mayotte","ot","Mayotte",NA,"#N/A","","MF","Mayotte","","","Mayotte","MYT","","","#N/A","","",""
"Mexico","Mexique (le)","Mexico","Mexico","MX","MEX",484,"MEX","MEX","Â Mexico","MX","MEX","Mexico","mx","Mexico",345,"MEX","Mexico","MX","Mexico","MEX","Â Mexico","Mexico","MEX","MEX","Â Mexico","Mexico","Mexico","Mexico",""
"Micronesia (Federated States of)","MicronÃ©sie (Ã‰tats fÃ©dÃ©rÃ©s de)","Federated States of Micronesia","Micronesia (Federated States of)","FM","FSM",583,"FSM","FSM","Â Federated States of Micronesia","FM","FSM","Federated States of Micronesia","fm","Micronesia (Federated States)",510,"FSM","Micronesia (Federated States of)","FM","Micronesia, Federated States of","MIC","Â Federated States of Micronesia","Micronesia","FSM","","","Micronesia, Fed. Sts.","","Federated States of Micronesia",""
"Moldova (the Republic of)","Moldova (la RÃ©publique de)","Republic of Moldova","Republic of Moldova","MD","MDA",498,"MDA","MDA","Â Moldova","MD","MDA","Republic of Moldova","mv","Moldova",214,"MDA","Moldova (Republic of)","MD","Moldova, Republic of","MOL","Â Republic of Moldova","Moldova Rep","MDA","MD","Â Moldova","Moldova","Moldova","Moldova",""
"Monaco","Monaco","Monaco","Monaco","MC","MCO",492,"MCO","MON","Â Monaco","MN","MCO","Monaco","mc","Monaco",254,"MCO","Monaco (Principality of)","MN","Monaco","MNC","Â Monaco","Monaco","MCO","MC","Â Monaco","Monaco","","Monaco",""
"Mongolia","Mongolie (la)","Mongolia","Mongolia","MN","MNG",496,"MNG","MGL","Â Mongolia","MG","MNG","Mongolia","mp","Mongolia",457,"MNG","Mongolia","MG","Mongolia","MON","Â Mongolia","Mongolia","MNG","MGL","Â Mongolia","Mongolia","","Mongolia",""
"Montenegro","MontÃ©nÃ©gro (le)","Montenegro","Montenegro","ME","MNE",499,"MNE","MNE","Â Montenegro","ME","MNE","Montenegro","mo","Montenegro",262,"MNE","Montenegro","MJ","Montenegro","","","Montenegro","MNE","MNE","Â Montenegro","#N/A","","Montenegro",""
"Montserrat","Montserrat","Montserrat","Montserrat","MS","MSR",500,"MSR","","","MH","MSR","Montserrat","mj","Montserrat",348,"#N/A","United Kingdom of Great Britain and Northern Ireland - Montserrat","MH","Montserrat","MOT","Â Montserrat","Montserrat","MSR","","","Montserrat","","",""
"Morocco","Maroc (le)","Morocco","Morocco","MA","MAR",504,"MOR","MAR","Â Morocco","MO","MAR","Morocco","mr","Morocco",242,"MRC","Morocco (Kingdom of)","MO","Morocco","MOR","Â Morocco","Morocco","MAR","MA","Â Morocco","Morocco","Morocco","Morocco",""
"Mozambique","Mozambique (le)","Mozambique","Mozambique","MZ","MOZ",508,"MOZ","MOZ","Â Mozambique","MZ","MOZ","Mozambique","mz","Mozambique",650,"MOZ","Mozambique (Republic of)","MZ","Mozambique","MOZ","Â Mozambique","Mozambique","MOZ","MOC","Â Mozambique","Mozambique","Mozambique","Mozambique",""
"Myanmar","Myanmar (le)","Myanmar","Myanmar","MM","MMR",104,"MYA","MYA","Â Myanmar","MM","MMR","Myanmar","br","Burma",506,"BRM","Myanmar (Union of)","BM","Myanmar","MYA","Â Myanmar","Myanmar","MMR","BUR","Â Myanmar","Myanmar","Myanmar (Burma)","Myanmar",""
"Namibia","Namibie (la)","Namibia","Namibia",NA,"NAM",516,"NAM","NAM","Â Namibia","WA","NAM","Namibia","sx","Namibia",659,"NMB","Namibia (Republic of)","WA","Namibia","NAM","Â Namibia","Namibia","NAM","NAM","Â Namibia","Namibia","Namibia","Namibia",""
"Nauru","Nauru","Nauru","Nauru","NR","NRU",520,"NRU","NRU","Â Nauru","NR","NRU","Nauru","nu","Nauru",544,"NRU","Nauru (Republic of)","NR","Nauru","NAU","Â Nauru","Nauru","NRU","NAU","Â Nauru","Nauru","","Nauru",""
"Nepal","NÃ©pal (le)","Nepal","Nepal","NP","NPL",524,"NEP","NEP","Â Nepal","NP","NPL","Nepal","np","Nepal",459,"NPL","Nepal (Federal Democratic Republic of)","NP","Nepal","NEP","Â Â Â Nepal","Nepal","NPL","NEP","Â Nepal","Nepal","Nepal","Nepal",""
"Netherlands (the)","Pays-Bas (les)","Netherlands","Netherlands","NL","NLD",528,"NET","NED","Â Netherlands","NL","NLD","Netherlands","ne","Netherlands",244,"HOL","Netherlands (Kingdom of the)","NL","Netherlands","NET","Â Netherlands","Netherlands","NLD","NL","Â Netherlands","Netherlands","Netherlands","Kingdom of the Netherlands",""
"New Caledonia","Nouvelle-CalÃ©donie (la)","French New Caledonia (FRA)","New Caledonia","NC","NCL",540,"FNC","","","NC","NCL","New Caledonia","nl","New Caledonia",540,"#N/A","France - New Caledonia","NC","New Caledonia","NCA","Â New Caledonia","NewCaledonia","NCL","","","New Caledonia","","",""
"New Zealand","Nouvelle-ZÃ©lande (la)","New Zealand","New Zealand","NZ","NZL",554,"NZL","NZL","Â New Zealand","NZ","NZL","New Zealand","nz","New Zealand",512,"NZL","New Zealand","NZ","New Zealand","NZE","Â New Zealand","New Zealand","NZL","NZ","Â New Zealand","New Zealand","","New Zealand",""
"Nicaragua","Nicaragua (le)","Nicaragua","Nicaragua","NI","NIC",558,"NIC","NCA","Â Nicaragua","NU","NIC","Nicaragua","nq","Nicaragua",350,"NCG","Nicaragua","NU","Nicaragua","NIC","Â Nicaragua","Nicaragua","NIC","NIC","Â Nicaragua","Nicaragua","Nicaragua","Nicaragua",""
"Niger (the)","Niger (le)","Niger","Niger","NE","NER",562,"NGR","NIG","Â Niger","NE","NER","Niger","ng","Niger",656,"NGR","Niger (Republic of the)","NG","Niger","NER","Â Niger","Niger","NER","RN","Â Niger","Niger","Niger","Niger",""
"Nigeria","NigÃ©ria (le)","Nigeria","Nigeria","NG","NGA",566,"NIG","NGR","Â Nigeria","NG","NGA","Nigeria","nr","Nigeria",657,"NIG","Nigeria (Federal Republic of)","NI","Nigeria","NIR","Â Nigeria","Nigeria","NGA","WAN","Â Nigeria","Nigeria","Nigeria","Nigeria",""
"Niue","Niue","Niue","Niue","NU","NIU",570,"NIU","","","NU","NIU","Niue","xh","Niue",542,"#N/A","New Zealand - Niue","NE","Niue","NIU","Â Niue","Niue","NIU","","","Niue","","",""
"Norfolk Island","Norfolk (l'ÃŽle)","#N/A","#N/A","NF","NFK",574,"#N/A","","","NF","NFK","Norfolk Island","nx","Norfolk Island",NA,"#N/A","","NF","Norfolk Island","","","Norfolk Is","NFK","","","Norfolk Island","","",""
"North Macedonia","MacÃ©doine du Nord (la)","North Macedonia","North Macedonia","MK","MKD",807,"MCD","MKD","North MacedoniaÂ North Macedonia","MK","MKD","North Macedonia","","",274,"MKD","North Macedonia (Republic of)","MK","Macedonia, the former Yugoslav Republic of","MCD","Â Republic of Macedonia","FYRMacedonia","MKD","NMK","Â North Macedonia","Macedonia, FYR","Macedonia, FYR","North Macedonia",""
"Northern Mariana Islands (the)","Mariannes du Nord (les ÃŽles)","Northern Mariana Islands (USA)","Northern Mariana Islands","MP","MNP",580,"MNP","","","","","","nw","Northern Mariana Islands",536,"#N/A","United States of America - Northern Mariana Islands (Commonwealth of the)","CQ","Northern Mariana Islands","","","N Marianas","MNP","","","Northern Mariana Islands","","",""
"Norway","NorvÃ¨ge (la)","Norway","Norway","NO","NOR",578,"NOR","NOR","Â Norway","NO","NOR","Norway","no","Norway",257,"NOR","Norway","NO","Norway","NOR","Â Norway","Norway","NOR","N","Â Norway","Norway","","Norway",""
"Oman","Oman","Oman","Oman","OM","OMN",512,"OMN","OMA","Â Oman","MU","OMN","Oman","mk","Oman",461,"OMA","Oman (Sultanate of)","MU","Oman","OMA","Â Oman","Oman","OMN","","","Oman","","Oman",""
"Pakistan","Pakistan (le)","Pakistan","Pakistan","PK","PAK",586,"PAK","PAK","Â Pakistan","PK","PAK","Pakistan","pk","Pakistan",463,"PAK","Pakistan (Islamic Republic of)","PK","Pakistan","PAK","Â Pakistan","Pakistan","PAK","PK","Â Pakistan","Pakistan","Pakistan","Pakistan",""
"Palau","Palaos (les)","Palau","Palau","PW","PLW",585,"PLW","PLW","Â Palau","PS","PLW","Palau","pw","Palau",511,"#N/A","Palau (Republic of)","PS","Palau","TTP","Â Palau","Palau","PLW","","","Palau","","Palau",""
"Palestine, State of","Palestine, Ã‰tat de","State of Palestine","State of Palestine","PS","PSE",275,"GAZ","PLE","Â Palestine","PS","PSE","Palestinian Territory","","",443,"#N/A","State of Palestine (In accordance with Resolution 99 Rev. Dubai, 2018)","WE","Palestine, State of","PAL","Â Occupied Palestinian Territory","Palest, O.T.","PSE","","","#N/A","","",""
"Panama","Panama (le)","Panama","Panama","PA","PAN",591,"PAN","PAN","Â Panama","PM","PAN","Panama","pn","Panama",351,"PNR","Panama (Republic of)","PM","Panama","PAN","Â Panama","Panama","PAN","PA","Â Panama","Panama","Panama","Panama",""
"Papua New Guinea","Papouasie-Nouvelle-GuinÃ©e (la)","Papua New Guinea","Papua New Guinea","PG","PNG",598,"PNG","PNG","Â Papua New Guinea","PP","PNG","Papua New Guinea","pp","Papua New Guinea",553,"PNG","Papua New Guinea","PP","Papua New Guinea","PNG","Â Papua New Guinea","Papua N Guin","PNG","PNG","Â Papua New Guinea","Papua New Guinea","Papua New Guinea","Papua New Guinea",""
"Paraguay","Paraguay (le)","Paraguay","Paraguay","PY","PRY",600,"PAR","PAR","Â Paraguay","PA","PRY","Paraguay","py","Paraguay",755,"PRG","Paraguay (Republic of)","PA","Paraguay","PAR","Â Paraguay","Paraguay","PRY","PY","Â Paraguay","Paraguay","Paraguay","Paraguay",""
"Peru","PÃ©rou (le)","Peru","Peru","PE","PER",604,"PER","PER","Â Peru","PE","PER","Peru","pe","Peru",760,"PRU","Peru","PE","Peru","PER","Â Peru","Peru","PER","PE","Â Peru","Peru","Peru","Peru",""
"Philippines (the)","Philippines (les)","Philippines","Philippines","PH","PHL",608,"PHI","PHI","Â Philippines","RP","PHL","Philippines","ph","Philippines",548,"PHL","Philippines (Republic of the)","RP","Philippines","PHI","Â Philippines","Philippines","PHL","RP","Â Philippines","Philippines","Philippines","Philippines",""
"Pitcairn","Pitcairn","#N/A","#N/A","PN","PCN",612,"#N/A","","","PN","PCN","Pitcairn Islands","pc","Pitcairn Island",555,"#N/A","United Kingdom of Great Britain and Northern Ireland - Pitcairn Island","PC","Pitcairn","","","Pitcairn Is","PCN","","","Pitcairn","","",""
"Poland","Pologne (la)","Poland","Poland","PL","POL",616,"POL","POL","Â Poland","PL","POL","Poland","pl","Poland",261,"POL","Poland (Republic of)","PL","Poland","POL","Â Poland","Poland","POL","PL","Â Poland","Poland","","Poland",""
"Portugal","Portugal (le)","Portugal","Portugal","PT","PRT",620,"POR","POR","Â Portugal","PT","PRT","Portugal","po","Portugal",263,"POR","Portugal","PO","Portugal","POR","Â Portugal","Portugal","PRT","P","Â Portugal","Portugal","","Portugal",""
"Puerto Rico","Porto Rico","Puerto Rico (USA)","Puerto Rico","PR","PRI",630,"PUE","PUR","Â Puerto Rico","RQ","PRI","Puerto Rico","pr","Puerto Rico",358,"#N/A","United States of America - Puerto Rico","RQ","Puerto Rico","PUE","Â Puerto Rico","Puerto Rico","PRI","","","Puerto Rico","","",""
"Qatar","Qatar (le)","Qatar","Qatar","QA","QAT",634,"QAT","QAT","Â Qatar","QA","QAT","Qatar","qa","Qatar",466,"QAT","Qatar (State of)","QA","Qatar","QAT","Â Qatar","Qatar","QAT","Q","Â Qatar","Qatar","Qatar","Qatar",""
"Romania","Roumanie (la)","Romania","Romania","RO","ROU",642,"ROM","ROU","Â Romania","RO","ROU","Romania","rm","Romania",264,"ROU","Romania","RO","Romania","ROM","Â Romania","Romania","ROU","RO","Â Romania","Romania","Romania","Romania",""
"Russian Federation (the)","Russie (la FÃ©dÃ©ration de)","Russian Federation","Russian Federation","RU","RUS",643,"RUS","RUS","Â Russia","RU","RUS","Russia","ru","Russia (Federation)",273,"RUS","Russian Federation","RS","Russian Federation","RUS","Â Russia","Russian Fed","RUS","RUS","Â Russia","Russian Federation","Russia (Soviet Union)","Russia",""
"Rwanda","Rwanda (le)","Rwanda","Rwanda","RW","RWA",646,"RWA","RWA","Â Rwanda","RW","RWA","Rwanda","rw","Rwanda",661,"RRW","Rwanda (Republic of)","RW","Rwanda","RWA","Â Rwanda","Rwanda","RWA","RWA","Â Rwanda","Rwanda","Rwanda","Rwanda",""
"RÃ©union","RÃ©union (La)","Reunion (FRA)","RÃ©union","RE","REU",638,"REU","","","RE","REU","RÃ©union","re","RÃ©union",660,"#N/A","France - Reunion (French Department of)","RE","Reunion","REU","Â RÃ©union","RÃ©union","REU","","","Reunion","","",""
"Saint BarthÃ©lemy","Saint-BarthÃ©lemy","#N/A","#N/A","BL","BLM",652,"#N/A","","","","","","sc","Saint-BarthÃ©lemy",NA,"#N/A","","TB","Saint Barthelemy","","","StBarthÃ©lemy","BLM","","","#N/A","","",""
"Saint Helena, Ascension and Tristan da Cunha","Sainte-HÃ©lÃ¨ne, Ascension et Tristan da Cunha","#N/A","#N/A","SH","SHN",654,"#N/A","","","SH","SHN","Saint Helena","xj","Saint Helena",665,"#N/A","United Kingdom of Great Britain and Northern Ireland - Saint Helena","SH","Saint Helena, Ascension and Tristan da Cunha","STH","Â Saint Helena","St Helena","SHN","","","Saint Helena","","",""
"Saint Kitts and Nevis","Saint-Kitts-et-Nevis","Saint Kitts and Nevis","Saint Kitts and Nevis","KN","KNA",659,"STK","SKN","Â Saint Kitts and Nevis","SC","KNA","Saint Kitts and Nevis","xd","Saint Kitts-Nevis",341,"KNA","Saint Kitts and Nevis (Federation of)","SC","Saint Kitts and Nevis","STK","Â Saint Kitts and Nevis","St Kitts Nev","KNA","","","St. Kitts and Nevis","","Saint Kitts and Nevis",""
"Saint Lucia","Sainte-Lucie","Saint Lucia","Saint Lucia","LC","LCA",662,"LCA","LCA","Â Saint Lucia","ST","LCA","Saint Lucia","xk","Saint Lucia",343,"LCA","Saint Lucia","ST","Saint Lucia","STL","Â Saint Lucia","St Lucia","LCA","WL","Â Saint Lucia","St. Lucia","","Saint Lucia",""
"Saint Martin (French part)","Saint-Martin (partie franÃ§aise)","Saint Martin (FRA)","Saint Martin (French Part)","MF","MAF",663,"MAF","","","","","","st","Saint-Martin",NA,"#N/A","","RN","Saint Martin","","","Saint-Martin","MAF","","","#N/A","","",""
"Saint Pierre and Miquelon","Saint-Pierre-et-Miquelon","#N/A","#N/A","PM","SPM",666,"#N/A","","","SB","SPM","Saint Pierre and Miquelon","xl","Saint Pierre and Miquelon",361,"#N/A","France - Saint Pierre and Miquelon (Territorial Collectivity of)","SB","Saint Pierre and Miquelon","","","St Pier Mq","SPM","","","Saint Pierre and Miquelon","","",""
"Saint Vincent and the Grenadines","Saint-Vincent-et-les Grenadines","Saint Vincent and the Grenadines","Saint Vincent and the Grenadines","VC","VCT",670,"VCT","ZAM","Â Saint Vincent and the Grenadines","VC","VCT","Saint Vincent and the Grenadines","xm","Saint Vincent and the Grenadines",375,"VCT","Saint Vincent and the Grenadines","VC","Saint Vincent and the Grenadines","STV","Â Saint Vincent and the Grenadines","St Vincent","VCT","WV","Â Saint Vincent and the Grenadines","St. Vincent and the Grenadines","","Saint Vincent and the Grenadines",""
"Samoa","Samoa (le)","Samoa","Samoa","WS","WSM",882,"WES","SAM","Â Samoa","SS","WSM","Samoa","ws","Samoa",561,"SMO","Samoa (Independent State of)","WS","Samoa","SAM","Â Samoa","Samoa","WSM","WS","Â Samoa","Samoa","","Samoa",""
"San Marino","Saint-Marin","San Marino","San Marino","SM","SMR",674,"SMA","SMR","Â San Marino","SM","SMR","San Marino","sm","San Marino",268,"SMR","San Marino (Republic of)","SM","San Marino","SNM","Â San Marino","San Marino","SMR","RSM","Â San Marino","San Marino","","San Marino",""
"Sao Tome and Principe","Sao TomÃ©-et-Principe","Sao Tome and Principe","Sao Tome and Principe","ST","STP",678,"STP","STP","Â SÃ£o TomÃ© and PrÃ­ncipe","TP","STP","SÃ£o TomÃ© and PrÃ­ncipe","sf","Sao Tome and Principe",668,"STP","Sao Tome and Principe (Democratic Republic of)","TP","Sao Tome and Principe","STP","Â SÃ£o TomÃ© and PrÃ­ncipe","Sao Tome Pr","STP","","","Sao Tome and Principe","","SÃ£o TomÃ© and PrÃ­ncipe",""
"Saudi Arabia","Arabie saoudite (l')","Saudi Arabia","Saudi Arabia","SA","SAU",682,"SAU","KSA","Â Saudi Arabia","SA","SAU","Saudi Arabia","su","Saudi Arabia",403,"ARS","Saudi Arabia (Kingdom of)","SA","Saudi Arabia","SAU","Â Saudi Arabia","Saudi Arabia","SAU","KSA","Â Saudi Arabia","Saudi Arabia","Saudi Arabia","Saudi Arabia",""
"Senegal","SÃ©nÃ©gal (le)","Senegal","Senegal","SN","SEN",686,"SEN","SEN","Â Senegal","SG","SEN","Senegal","sg","Senegal",663,"SEN","Senegal (Republic of)","SG","Senegal","SEN","Â Senegal","Senegal","SEN","SN","Â Senegal","Senegal","Senegal","Senegal",""
"Serbia","Serbie (la)","Serbia*","Serbia","RS","SRB",688,"SRB","SRB","Â Serbia","RS","SRB","Serbia","rb","Serbia",279,"SRB","Serbia (Republic of)","RI","Serbia","","","Serbia","SRB","SRB","Â Serbia","#N/A","Serbia (Yugoslavia)","Serbia",""
"Seychelles","Seychelles (les)","Seychelles","Seychelles","SC","SYC",690,"SEY","SEY","Â Seychelles","SE","SYC","Seychelles","se","Seychelles",664,"SEY","Seychelles (Republic of)","SE","Seychelles","SEY","Â Seychelles","Seychelles","SYC","SY","Â Seychelles","Seychelles","","Seychelles",""
"Sierra Leone","Sierra Leone (la)","Sierra Leone","Sierra Leone","SL","SLE",694,"SLE","SLE","Â Sierra Leone","SL","SLE","Sierra Leone","sl","Sierra Leone",667,"SRL","Sierra Leone","SL","Sierra Leone","SIL","Â Sierra Leone","Sierra Leone","SLE","WAL","Â Sierra Leone","Sierra Leone","Sierra Leone","Sierra Leone",""
"Singapore","Singapour","Singapore","Singapore","SG","SGP",702,"SIN","SGP","Â Singapore","SN","SGP","Singapore","si","Singapore",563,"SNG","Singapore (Republic of)","SN","Singapore","SIN","Â Singapore","Singapore","SGP","SGP","Â Singapore","Singapore","","Singapore",""
"Sint Maarten (Dutch part)","Saint-Martin (partie nÃ©erlandaise)","Sint Maarten (K. of the Netherland)","Sint Maarten (Dutch part)","SX","SXM",534,"SXM","","","","","","sn","Sint Maarten",306,"#N/A","Netherlands (Kingdom of the) - Sint Maarten (Dutch part)","NN","Sint Maarten","","","Sint Maarten","SXM","","","#N/A","","",""
"Slovakia","Slovaquie (la)","Slovakia","Slovakia","SK","SVK",703,"SVK","SVK","Â Slovakia","LO","SVK","Slovakia","xo","Slovakia",267,"SVK","Slovak Republic","LO","Slovakia","SLO","Â Slovakia","Slovakia","SVK","SK","Â Slovakia","Slovak Republic","","Slovakia",""
"Slovenia","SlovÃ©nie (la)","Slovenia","Slovenia","SI","SVN",705,"SVN","SLO","Â Slovenia","SI","SVN","Slovenia","xv","Slovenia",278,"SVN","Slovenia (Republic of)","SI","Slovenia","SVN","Â Slovenia","Slovenia","SVN","SLO","Â Slovenia","Slovenia","","Slovenia",""
"Solomon Islands","Salomon (les ÃŽles)","Solomon Islands","Solomon Islands","SB","SLB",90,"SOL","SOL","Â Solomon Islands","BP","SLB","Solomon Islands","bp","Solomon Islands",557,"SLM","Solomon Islands","BP","Solomon Islands","SOI","Â Solomon Islands","Solomon Is","SLB","","","Solomon Islands","Solomon Islands","Solomon Islands",""
"Somalia","Somalie (la)","Somalia","Somalia","SO","SOM",706,"SOM","SOM","Â Somalia","SO","SOM","Somalia","so","Somalia",666,"SOM","Somalia (Federal Republic of)","SO","Somalia","SOM","Â Somalia","Somalia","SOM","SO","Â Somalia","Somalia","Somalia","Somalia",""
"South Africa","Afrique du Sud (l')","South Africa","South Africa","ZA","ZAF",710,"RSA","RSA","Â South Africa","SF","ZAF","South Africa","sa","South Africa",601,"AFS","South Africa (Republic of)","SF","South Africa","SAF","Â South Africa","South Africa","ZAF","ZA","Â South Africa","South Africa","South Africa","South Africa",""
"South Georgia and the South Sandwich Islands","GÃ©orgie du Sud-et-les ÃŽles Sandwich du Sud (la)","South Georgia and the South Sandwich Islands (GBR)","South Georgia and the South Sandwich Islands","GS","SGS",239,"SGS","","","SX","SGS","South Georgia and South Sandwich Islands","xs","South Georgia and the South Sandwich Islands",NA,"#N/A","","SX","South Georgia and the South Sandwich Islands","","","","","","","#N/A","","",""
"South Sudan","Soudan du Sud (le)","South Sudan","South Sudan","SS","SSD",728,"SSD","SSD","Â South Sudan","SS","SSD","South Sudan","sd","South Sudan",638,"SSD","South Sudan (Republic of)","OD","South Sudan","","","South Sudan","SSD","","","#N/A","South Sudan","South Sudan",""
"Spain","Espagne (l')","Spain","Spain","ES","ESP",724,"SPA","ESP","Â Spain","ES","ESP","Spain","sp","Spain",224,"E","Spain","SP","Spain","SPA","Â Spain","Spain","ESP","E","Â Spain","Spain","Spain","Spain",""
"Sri Lanka","Sri Lanka","Sri Lanka","Sri Lanka","LK","LKA",144,"LKA","SRI","Â Sri Lanka","CE","LKA","Sri Lanka","ce","Sri Lanka",417,"CLN","Sri Lanka (Democratic Socialist Republic of)","CE","Sri Lanka","SRL","Â Sri Lanka","Sri Lanka","LKA","CL","Â Sri Lanka","Sri Lanka","Sri Lanka","Sri Lanka",""
"Sudan (the)","Soudan (le)","Sudan","Sudan","SD","SDN",729,"SUD","SUD","Â Sudan","SU","SDN","Sudan","sj","Sudan",662,"SDN","Sudan (Republic of the)","SU","Sudan","SUD","Â Sudan","Sudan","SDN","SUD","Â Sudan","Sudan","Sudan","Sudan",""
"Suriname","Suriname (le)","Suriname","Suriname","SR","SUR",740,"SUR","SUR","Â Suriname","NS","SUR","Suriname","sr","Surinam",765,"SUR","Suriname (Republic of)","NS","Suriname","SUR","Â Suriname","Suriname","SUR","SME","Â Suriname","Suriname","","Suriname",""
"Svalbard and Jan Mayen","Svalbard et l'ÃŽle Jan Mayen (le)","Svalbard and Jan Mayen Islands (NOR)","Svalbard and Jan Mayen Islands","SJ","SJM",744,"SJM","","","SJ","SJM","Svalbard and Jan Mayen Islands","#NAME?","Svalbard",NA,"#N/A","","SV","Svalbard and Jan Mayen","","","Svalbard Is","SJM","","","Svalbard and Jan Mayen Is","","",""
"Sweden","SuÃ¨de (la)","Sweden","Sweden","SE","SWE",752,"SWE","SWE","Â Sweden","SW","SWE","Sweden","sw","Sweden",265,"S","Sweden","SW","Sweden","SWE","Â Sweden","Sweden","SWE","S","Â Sweden","Sweden","Sweden","Sweden",""
"Switzerland","Suisse (la)","Switzerland","Switzerland","CH","CHE",756,"SWI","SUI","Â Switzerland","SZ","CHE","Switzerland","sz","Switzerland",269,"SUI","Switzerland (Confederation of)","SZ","Switzerland","SWI","Â Switzerland","Switzerland","CHE","CH","Â Â Switzerland","Switzerland","","Switzerland",""
"Syrian Arab Republic (the)","RÃ©publique arabe syrienne (la)","Syrian Arab Republic","Syrian Arab Republic","SY","SYR",760,"SYR","SYR","Â Syria","SY","SYR","Syria","sy","Syria",468,"SYR","Syrian Arab Republic","SY","Syrian Arab Republic","SYR","Â Syria","Syria","SYR","SYR","Â Syria","Syrian Arab Republic","Syria","Syria",""
"Taiwan (Province of China)","TaÃ¯wan (Province de Chine)","Taiwan (CHN)","0","TW","TWN",158,"TWN","","","TW","TWN","Republic of China (Taiwan)","","",416,"#N/A","China (People's Republic of) - Taiwan (Province of China)","TW","Taiwan","","","China,Taiwan","TWN","","","Taiwan","","",""
"Tajikistan","Tadjikistan (le)","Tajikistan","Tajikistan","TJ","TJK",762,"TJK","TJK","Â Tajikistan","TI","TJK","Tajikistan","ta","Tajikistan",472,"TJK","Tajikistan (Republic of)","TI","Tajikistan","TAJ","Â Tajikistan","Tajikistan","TJK","TJ","Â Tajikistan","Tajikistan","Tajikistan","Tajikistan",""
"Tanzania, the United Republic of","Tanzanie (la RÃ©publique-Unie de)","United Republic of Tanzania","United Republic of Tanzania","TZ","TZA",834,"TAN","TAN","Â Tanzania","TZ","TZA","Tanzania","tz","Tanzania",674,"TZA","Tanzania (United Republic of)","TZ","Tanzania, United Republic of","URT","Â Tanzania","Tanzania","TZA","EAT","Â Tanzania","Tanzania","Tanzania","Tanzania",""
"Thailand","ThaÃ¯lande (la)","Thailand","Thailand","TH","THA",764,"THA","THA","Â Thailand","TH","THA","Thailand","th","Thailand",567,"THA","Thailand","TH","Thailand","THA","Â Thailand","Thailand","THA","T","Â Thailand","Thailand","Thailand","Thailand",""
"Timor-Leste","Timor-Leste (le)","Timor-Leste","Timor-Leste","TL","TLS",626,"TMP","TLS","Â East Timor","TL","TLS","Timor-Leste","em","Timor-Leste",550,"TLS","Timor-Leste (Democratic Republic of)","TT","Timor-Leste","TIM","Â Timor-Leste","Timor-Leste","TLS","","","#N/A","","East Timor",""
"Togo","Togo (le)","Togo","Togo","TG","TGO",768,"TOG","TOG","Â Togo","TO","TGO","Togo","tg","Togo",671,"TGO","Togolese Republic","TO","Togo","TOG","Â Togo","Togo","TGO","TG","Â Togo","Togo","Togo","Togo",""
"Tokelau","Tokelau (les)","#N/A","#N/A","TK","TKL",772,"#N/A","","","TK","TKL","Tokelau","tl","Tokelau",NA,"#N/A","","TL","Tokelau","TOK","Â Tokelau","Tokelau","TKL","","","Tokelau","","",""
"Tonga","Tonga (les)","Tonga","Tonga","TO","TON",776,"TON","TGA","Â Tonga","TN","TON","Tonga","to","Tonga",570,"TON","Tonga (Kingdom of)","TN","Tonga","TON","Â Tonga","Tonga","TON","","","Tonga","","Tonga",""
"Trinidad and Tobago","TrinitÃ©-et-Tobago (la)","Trinidad and Tobago","Trinidad and Tobago","TT","TTO",780,"TRT","TTO","Â Trinidad and Tobago","TD","TTO","Trinidad and Tobago","tr","Trinidad and Tobago",362,"TRD","Trinidad and Tobago","TD","Trinidad and Tobago","TRI","Â Trinidad and Tobago","Trinidad Tob","TTO","TT","Â Trinidad and Tobago","Trinidad and Tobago","Trinidad and Tobago","Trinidad and Tobago",""
"Tunisia","Tunisie (la)","Tunisia","Tunisia","TN","TUN",788,"TUN","TUN","Â Tunisia","TS","TUN","Tunisia","ti","Tunisia",672,"TUN","Tunisia","TS","Tunisia","TUN","Â Tunisia","Tunisia","TUN","TN","Â Tunisia","Tunisia","Tunisia","Tunisia",""
"Turkey","Turquie (la)","Turkey","Turkey","TR","TUR",792,"TUR","TUR","Â Turkey","TU","TUR","Turkey","tu","Turkey",271,"TUR","Turkey","TU","Turkey","TUR","Â Turkey","Turkey","TUR","TR","Â Turkey","Turkey","Turkey","Turkey",""
"Turkmenistan","TurkmÃ©nistan (le)","Turkmenistan","Turkmenistan","TM","TKM",795,"TKM","TKM","Â Turkmenistan","TX","TKM","Turkmenistan","tk","Turkmenistan",434,"TKM","Turkmenistan","TX","Turkmenistan","TUK","Â Turkmenistan","Turkmenistan","TKM","TM","Â Turkmenistan","Turkmenistan","","Turkmenistan",""
"Turks and Caicos Islands (the)","Turks-et-CaÃ¯cos (les ÃŽles)","Turks and Caicos Islands (GBR)","Turks and Caicos Islands","TC","TCA",796,"TCI","","","TK","TCA","Turks and Caicos Islands","tc","Turks and Caicos Islands",364,"#N/A","United Kingdom of Great Britain and Northern Ireland - Turks and Caicos Islands","TK","Turks and Caicos Islands","TCI","Â Turks and Caicos Islands","Turks Caicos","TCA","","","Turks and Caicos Isl.","","",""
"Tuvalu","Tuvalu (les)","Tuvalu","Tuvalu","TV","TUV",798,"TUV","TUV","Â Tuvalu","TV","TUV","Tuvalu","tv","Tuvalu",572,"TUV","Tuvalu","TV","Tuvalu","TUV","Â Tuvalu","Tuvalu","TUV","","","Tuvalu","","Tuvalu",""
"Uganda","Ouganda (l')","Uganda","Uganda","UG","UGA",800,"UGA","UGA","Â Uganda","UG","UGA","Uganda","ug","Uganda",675,"UGA","Uganda (Republic of)","UG","Uganda","UGA","Â Uganda","Uganda","UGA","EAU","Â Uganda","Uganda","Uganda","Uganda",""
"Ukraine","Ukraine (l')","Ukraine","Ukraine","UA","UKR",804,"UKR","UKR","Â Ukraine","UP","UKR","Ukraine","un","Ukraine",272,"UKR","Ukraine","UA","Ukraine","UKR","Â Ukraine","Ukraine","UKR","UA","Â Ukraine","Ukraine","Ukraine","Ukraine",""
"United Arab Emirates (the)","Ã‰mirats arabes unis (les)","United Arab Emirates","United Arab Emirates","AE","ARE",784,"UAE","UAE","Â United Arab Emirates","TC","ARE","United Arab Emirates","ts","United Arab Emirates",470,"UAE","United Arab Emirates","AE","United Arab Emirates","UAE","Â United Arab Emirates","Untd","Arab","UAE","Â United Arab Emirates","United Arab Emirates","United Arab Emirates","United Arab Emirates",""
"United Kingdom of Great Britain and Northern Ireland (the)","Royaume-Uni de Grande-Bretagne et d'Irlande du Nord (le)","United Kingdom of Great Britain and Northern Ireland","United Kingdom of Great Britain and Northern Ireland","GB","GBR",826,"GBR","GBR","Â Great Britain","GB","GBR","United KingdomÂ (Great BritainÂ andÂ Northern Ireland)","uk","United Kingdom",232,"G","United Kingdom of Great Britain and Northern Ireland","UK","United Kingdom","UKM","Â United Kingdom","UK","GBR","GB","Â United Kingdom","United Kingdom","United Kingdom","United Kingdom",""
"United States Minor Outlying Islands (the)","ÃŽles mineures Ã©loignÃ©es des Ã‰tats-Unis (les)","#N/A","#N/A","UM","UMI",581,"#N/A","USA","","","","","uc","United States Misc. Caribbean Islands",NA,"#N/A","","â€“","United States Minor Outlying Islands","","","","","","","#N/A","","",""
"United States of America (the)","Ã‰tats-Unis d'AmÃ©rique (les)","United States of America","United States of America","US","USA",840,"USA","UZB","Â United States","US","USA","United States","us","United States",338,"USA","United States of America","US","United States","USA","Â United States","USA","USA","USA","Â United States","United States","United States of America","United States",""
"Uruguay","Uruguay (l')","Uruguay","Uruguay","UY","URY",858,"URU","URU","Â Uruguay","UY","URY","Uruguay","uy","Uruguay",770,"URG","Uruguay (Eastern Republic of)","UY","Uruguay","URU","Â Uruguay","Uruguay","URY","UY","Â Uruguay","Uruguay","","Uruguay",""
"Uzbekistan","OuzbÃ©kistan (l')","Uzbekistan","Uzbekistan","UZ","UZB",860,"UZB","UZB","Â Uzbekistan","UZ","UZB","Uzbekistan","uz","Uzbekistan",437,"UZB","Uzbekistan (Republic of)","UZ","Uzbekistan","UZB","Â Uzbekistan","Uzbekistan","UZB","UZ","Â Uzbekistan","Uzbekistan","Uzbekistan","Uzbekistan",""
"Vanuatu","Vanuatu (le)","Vanuatu","Vanuatu","VU","VUT",548,"VAN","VAN","Â Vanuatu","NH","VUT","Vanuatu","nn","Vanuatu",576,"VUT","Vanuatu (Republic of)","NH","Vanuatu","VAN","Â Vanuatu","Vanuatu","VUT","","","Vanuatu","","Vanuatu",""
"Venezuela (Bolivarian Republic of)","Venezuela (RÃ©publique bolivarienne du)","Bolivarian Republic of Venezuela","Venezuela (Bolivarian Republic of)","VE","VEN",862,"VEN","VEN","Â Venezuela","VE","VEN","Venezuela","ve","Venezuela",775,"VEN","Venezuela (Bolivarian Republic of)","VE","Venezuela, Bolivarian Republic of","VEN","Â Venezuela","Venezuela","VEN","YV","Â Venezuela","Venezuela","Venezuela","Venezuela",""
"Viet Nam","Viet Nam (le)","Viet Nam","Viet Nam","VN","VNM",704,"SRV","VIE","Â Vietnam","VN","VNM","Vietnam","vm","Vietnam",574,"VTN","Viet Nam (Socialist Republic of)","VN","Viet Nam","VIE","Â Vietnam","Viet Nam","VNM","VN","Â Vietnam","Vietnam","","Vietnam",""
"Virgin Islands (British)","Vierges britanniques (lesÂ ÃŽles)","British Virgin Islands (GBR)","British Virgin Islands","VG","VGB",92,"BVI","IVB","Â British Virgin Islands","VS","VGB","British Virgin Islands","vb","British Virgin Islands",378,"#N/A","United Kingdom of Great Britain and Northern Ireland - British Virgin Islands","VI","Virgin Islands, British","BVI","Â British Virgin Islands","Br Virgin Is","VGB","BVI","Â British Virgin Islands","British Virgin Islands","","",""
"Virgin Islands (U.S.)","Vierges des Ã‰tats-Unis (les ÃŽles)","#N/A","#N/A","VI","VIR",850,"#N/A","ISV","Â Virgin Islands","VI","VIR","U.S. Virgin Islands","vi","Virgin Islands of the United States",379,"#N/A","United States of America - United States Virgin Islands","VQ","Virgin Islands, U.S.","UVI","Â U.S. Virgin Islands","US Virgin Is","VIR","","","Virgin Islands (U.S.)","","",""
"Wallis and Futuna","Wallis-et-Futuna","#N/A","#N/A","WF","WLF",876,"#N/A","","","WF","WLF","Wallis and Futuna Islands","wf","Wallis and Futuna",578,"#N/A","France - Wallis and Futuna Islands","WF","Wallis and Futuna","WFI","Â Wallis and Futuna Islands","Wallis Fut I","WLF","","","Wallis and Futura Isl.","","",""
"Western Sahara*","Sahara occidental (le)*","Western Sahara","Western Sahara","EH","ESH",732,"WSH","","","WI","ESH","Western Sahara","","",NA,"#N/A","","WI","Western Sahara","SAH","Â Western Sahara","","","","","Western Sahara","","",""
"Yemen","YÃ©men (le)","Yemen","Yemen","YE","YEM",887,"YEM","YEM","Â Yemen","YE","YEM","Yemen","ye","Yemen",473,"YEM","Yemen (Republic of)","YM","Yemen","YEM","Â Yemen","Yemen","YEM","YAR","Â Yemen","Yemen, Rep.","Yemen (North Yemen)","Yemen",""
"Zambia","Zambie (la)","Zambia","Zambia","ZM","ZMB",894,"ZAM","ZAM","Â Zambia","ZA","ZMB","Zambia","za","Zambia",678,"ZMB","Zambia (Republic of)","ZA","Zambia","ZAM","Â Zambia","Zambia","ZMB","Z","Â Zambia","Zambia","Zambia","Zambia",""
"Zimbabwe","Zimbabwe (le)","Zimbabwe","Zimbabwe","ZW","ZWE",716,"ZIM","ZIM","Â Zimbabwe","ZI","ZWE","Zimbabwe","rh","Zimbabwe",679,"ZWE","Zimbabwe (Republic of)","ZI","Zimbabwe","ZIM","Â Zimbabwe","Zimbabwe","ZWE","ZW","Â Zimbabwe","Zimbabwe","Zimbabwe (Rhodesia)","Â Zimbabwe",""
"Ã…land Islands","Ã…land(les ÃŽles)","#N/A","#N/A","AX","ALA",248,"#N/A","","","","","","","",NA,"#N/A","","â€“","Aland Islands","","","","","","","#N/A","","",""
